NORAD_CAT_ID,OBJECT_NAME,OBJECT_TYPE,EPOCH,MEAN_MOTION,ECCENTRICITY,INCLINATION,RA_OF_ASC_NODE,ARG_OF_PERICENTER,MEAN_ANOMALY,BSTAR,MEAN_MOTION_DOT,MEAN_MOTION_DDOT,TLE_LINE0,TLE_LINE1,TLE_LINE2,SEMIMAJOR_AXIS,PERIOD,APOGEE,PERIGEE,DECAYED
53175.0,STARLINK-4292,PAYLOAD,2022-11-24 19:45:17,15.08844731,0.0002428,53.2193,165.0219,47.5027,312.617,8.526e-05,1.069e-05,0.0,0 STARLINK-4292,1 53175U 22083AV  22328.82311979  .00001069  00000-0  85260-4 0  9994,2 53175  53.2193 165.0219 0002428  47.5027 312.6170 15.08844731 20565,6917.866,95.437,541.411,538.0509999999998,0.0
53175.0,STARLINK-4292,PAYLOAD,2022-11-25 13:14:31,15.08846082,0.0002419,53.2191,161.7509,48.1079,312.0119,5.5841e-05,6.01e-06,0.0,0 STARLINK-4292,1 53175U 22083AV  22329.55175752  .00000601  00000-0  55841-4 0  9995,2 53175  53.2191 161.7509 0002419  48.1079 312.0119 15.08846082 20032,6917.861999999999,95.437,541.4,538.053,0.0
53175.0,STARLINK-4292,PAYLOAD,2022-11-25 19:36:04,15.08848492,0.000243,53.2192,160.5617,48.1617,311.9582,4.6471e-05,4.51e-06,0.0,0 STARLINK-4292,1 53175U 22083AV  22329.81671515  .00000451  00000-0  46471-4 0  9994,2 53175  53.2192 160.5617 0002430  48.1617 311.9582 15.08848492 20074,6917.854,95.437,541.4,538.038,0.0
53175.0,STARLINK-4292,PAYLOAD,2022-11-25 22:46:50,15.08849069,0.0002444,53.2191,159.9669,48.7085,311.4118,5.065e-05,5.18e-06,0.0,0 STARLINK-4292,1 53175U 22083AV  22329.94919395  .00000518  00000-0  50650-4 0  9997,2 53175  53.2191 159.9669 0002444  48.7085 311.4118 15.08849069 20736,6917.853,95.437,541.408,538.0269999999998,0.0
53175.0,STARLINK-4292,PAYLOAD,2022-11-26 13:05:18,15.08845956,0.0002435,53.2187,157.2904,48.06100000000001,312.059,5.6054e-05,6.04e-06,0.0,0 STARLINK-4292,1 53175U 22083AV  22330.54535247  .00000604  00000-0  56054-4 0  9995,2 53175  53.2187 157.2904 0002435  48.0610 312.0590 15.08845956 20182,6917.861999999999,95.437,541.4119999999998,538.043,0.0
53175.0,STARLINK-4292,PAYLOAD,2022-11-26 19:26:51,15.08838074,0.0002436,53.2189,156.1008,48.6314,311.4888,-1.1577e-05,-4.73e-06,0.0,0 STARLINK-4292,1 53175U 22083AV  22330.81031940 -.00000473  00000-0 -11577-4 0  9993,2 53175  53.2189 156.1008 0002436  48.6314 311.4888 15.08838074 20226,6917.886,95.438,541.436,538.066,0.0
53175.0,STARLINK-4292,PAYLOAD,2022-11-26 22:37:38,15.08834253,0.0002411,53.2186,155.5064,48.1788,311.941,-8.9074e-06,-4.3e-06,0.0,0 STARLINK-4292,1 53175U 22083AV  22330.94280184 -.00000430  00000-0 -89074-5 0  9994,2 53175  53.2186 155.5064 0002411  48.1788 311.9410 15.08834253 20884,6917.898,95.438,541.431,538.095,0.0
53175.0,STARLINK-4292,PAYLOAD,2022-11-27 12:56:06,15.08836316,0.0002379,53.2181,152.83,47.8114,312.308,-3.038e-05,-7.72e-06,0.0,0 STARLINK-4292,1 53175U 22083AV  22331.53896199 -.00000772  00000-0 -30380-4 0  9993,2 53175  53.2181 152.8300 0002379  47.8114 312.3080 15.08836316 20334,6917.892,95.438,541.4019999999998,538.111,0.0
53175.0,STARLINK-4292,PAYLOAD,2022-11-27 20:53:01,15.08838919,0.0002439,53.2184,151.3431,48.4742,311.6459,-8.5216e-06,-4.24e-06,0.0,0 STARLINK-4292,1 53175U 22083AV  22331.87016062 -.00000424  00000-0 -85216-5 0  9996,2 53175  53.2184 151.3431 0002439  48.4742 311.6459 15.08838919 20385,6917.884,95.438,541.436,538.061,0.0
53175.0,STARLINK-4292,PAYLOAD,2022-11-28 11:11:30,15.08833173,0.0002466,53.2189,148.6673,49.8667,310.2541,9.6354e-05,1.245e-05,0.0,0 STARLINK-4292,1 53175U 22083AV  22332.46632125  .00001245  00000-0  96354-4 0  9990,2 53175  53.2189 148.6673 0002466  49.8667 310.2541 15.08833173 21114,6917.901,95.438,541.472,538.06,0.0
53175.0,STARLINK-4292,PAYLOAD,2022-11-28 12:46:53,15.08833526,0.0002462,53.2189,148.37,50.1064,310.0144,9.7092e-05,1.257e-05,0.0,0 STARLINK-4292,1 53175U 22083AV  22332.53256136  .00001257  00000-0  97092-4 0  9995,2 53175  53.2189 148.3700 0002462  50.1064 310.0144 15.08833526 20482,6917.9,95.438,541.4680000000002,538.062,0.0
53175.0,STARLINK-4292,PAYLOAD,2022-11-29 12:37:40,15.08842124,0.0002466,53.2193,143.9096,52.7042,307.4175,0.00010232,1.341e-05,0.0,0 STARLINK-4292,1 53175U 22083AV  22333.52615800  .00001341  00000-0  10232-3 0  9996,2 53175  53.2193 143.9096 0002466  52.7042 307.4175 15.08842124 20639,6917.874,95.437,541.445,538.033,0.0
53175.0,STARLINK-4292,PAYLOAD,2022-11-30 04:31:32,15.08833505,0.000254,53.2193,140.9364,53.2006,306.9219,1.4729e-05,-5.4e-07,0.0,0 STARLINK-4292,1 53175U 22083AV  22334.18856731 -.00000054  00000-0  14729-4 0  9996,2 53175  53.2193 140.9364 0002540  53.2006 306.9219 15.08833505 21371,6917.9,95.438,541.5219999999998,538.008,0.0
53175.0,STARLINK-4292,PAYLOAD,2022-11-30 10:53:04,15.08835333,0.0002539,53.2189,139.7464,53.3299,306.7927,-3.218e-06,-3.4e-06,0.0,0 STARLINK-4292,1 53175U 22083AV  22334.45352783 -.00000340  00000-0 -32180-5 0  9995,2 53175  53.2189 139.7464 0002539  53.3299 306.7927 15.08835333 20774,6917.895,95.438,541.516,538.003,0.0
53175.0,STARLINK-4292,PAYLOAD,2022-11-30 14:03:51,15.08835995,0.0002496,53.2185,139.1517,53.2276,306.8945,5.5065e-06,-2.01e-06,0.0,0 STARLINK-4292,1 53175U 22083AV  22334.58600722 -.00000201  00000-0  55065-5 0  9990,2 53175  53.2185 139.1517 0002496  53.2276 306.8945 15.08835995 20796,6917.893,95.438,541.484,538.031,0.0
53175.0,STARLINK-4292,PAYLOAD,2022-12-01 04:22:19,15.08839007,0.0002511,53.2191,136.4761,54.2589,305.8636,2.3931e-05,9.2e-07,0.0,0 STARLINK-4292,1 53175U 22083AV  22335.18216660  .00000092  00000-0  23931-4 0  9994,2 53175  53.2191 136.4761 0002511  54.2589 305.8636 15.08839007 20884,6917.8830000000025,95.438,541.486,538.011,0.0
53175.0,STARLINK-4292,PAYLOAD,2022-12-01 17:05:23,15.08844745,0.0002626,53.219,134.0974,53.6771,306.4463,5.0837e-05,5.21e-06,0.0,0 STARLINK-4292,1 53175U 22083AV  22335.71208271  .00000521  00000-0  50837-4 0  9994,2 53175  53.2190 134.0974 0002626  53.6771 306.4463 15.08844745 21607,6917.866,95.437,541.548,537.914,0.0
53175.0,STARLINK-4292,PAYLOAD,2022-12-02 04:13:05,15.08843047,0.0002514,53.2192,132.0159,54.0895,306.033,0.00015892,2.242e-05,0.0,0 STARLINK-4292,1 53175U 22083AV  22336.17576125  .00002242  00000-0  15892-3 0  9994,2 53175  53.2192 132.0159 0002514  54.0895 306.0330 15.08843047 21030,6917.871,95.437,541.475,537.997,0.0
53175.0,STARLINK-4292,PAYLOAD,2022-12-02 13:45:24,15.08839477,0.0002518,53.2195,130.2319,54.7876,305.3351,0.00013802,1.909e-05,0.0,0 STARLINK-4292,1 53175U 22083AV  22336.57320483  .00001909  00000-0  13802-3 0  9990,2 53175  53.2195 130.2319 0002518  54.7876 305.3351 15.08839477 21735,6917.882,95.438,541.489,538.005,0.0
53175.0,STARLINK-4292,PAYLOAD,2022-12-02 20:06:58,15.08831352,0.0002468,53.2194,129.0424,53.9777,306.1443,4.0595e-05,3.58e-06,0.0,0 STARLINK-4292,1 53175U 22083AV  22336.83817281  .00000358  00000-0  40595-4 0  9993,2 53175  53.2194 129.0424 0002468  53.9777 306.1443 15.08831352 21131,6917.906999999997,95.438,541.479,538.064,0.0
53175.0,STARLINK-4292,PAYLOAD,2022-12-03 13:36:12,15.08839796,0.0002486,53.2196,125.7718,54.2398,305.8826,7.5238e-05,9.09e-06,0.0,0 STARLINK-4292,1 53175U 22083AV  22337.56680834  .00000909  00000-0  75238-4 0  9990,2 53175  53.2196 125.7718 0002486  54.2398 305.8826 15.08839796 21248,6917.880999999999,95.438,541.466,538.026,0.0
53175.0,STARLINK-4292,PAYLOAD,2022-12-03 16:46:58,15.08841951,0.0002481,53.2197,125.177,54.6549,305.4675,8.9341e-05,1.134e-05,0.0,0 STARLINK-4292,1 53175U 22083AV  22337.69928655  .00001134  00000-0  89341-4 0  9991,2 53175  53.2197 125.1770 0002481  54.6549 305.4675 15.08841951 21905,6917.874,95.437,541.456,538.023,0.0
53175.0,STARLINK-4292,PAYLOAD,2022-12-04 10:16:12,15.08855388,0.0002464,53.2196,121.9056,51.6773,308.444,-0.00010431,-1.949e-05,0.0,0 STARLINK-4292,1 53175U 22083AV  22338.42792039 -.00001949  00000-0 -10431-3 0  9997,2 53175  53.2196 121.9056 0002464  51.6773 308.4440 15.08855388 21375,6917.833000000001,95.437,541.403,537.994,0.0
53175.0,STARLINK-4292,PAYLOAD,2022-12-04 18:13:08,15.08834226,0.0002436,53.22,120.4192,53.2813,306.8402,7.6118e-05,9.23e-06,0.0,0 STARLINK-4292,1 53175U 22083AV  22338.75913028  .00000923  00000-0  76118-4 0  9990,2 53175  53.2200 120.4192 0002436  53.2813 306.8402 15.08834226 22063,6917.898,95.438,541.448,538.078,0.0
53175.0,STARLINK-4292,PAYLOAD,2022-12-04 19:48:31,15.08835523,0.0002442,53.22,120.1218,53.3038,306.8178,8.4329e-05,1.054e-05,0.0,0 STARLINK-4292,1 53175U 22083AV  22338.82536982  .00001054  00000-0  84329-4 0  9997,2 53175  53.2200 120.1218 0002442  53.3038 306.8178 15.08835523 21437,6917.894,95.438,541.448,538.07,0.0
53175.0,STARLINK-4292,PAYLOAD,2022-12-05 10:06:59,15.08844315,0.0002406,53.22,117.4456,53.3368,306.7845,5.681e-05,6.16e-06,0.0,0 STARLINK-4292,1 53175U 22083AV  22339.42152514  .00000616  00000-0  56810-4 0  9996,2 53175  53.2200 117.4456 0002406  53.3368 306.7845 15.08844315 22166,6917.8669999999975,95.437,541.3969999999998,538.068,0.0
53175.0,STARLINK-4292,PAYLOAD,2022-12-05 16:28:32,15.08841485,0.0002444,53.2201,116.2564,53.6619,306.4599,2.8202e-05,1.6e-06,0.0,0 STARLINK-4292,1 53175U 22083AV  22339.68648773  .00000160  00000-0  28202-4 0  9999,2 53175  53.2201 116.2564 0002444  53.6619 306.4599 15.08841485 21569,6917.876,95.437,541.432,538.05,0.0
53175.0,STARLINK-4292,PAYLOAD,2022-12-06 08:22:23,15.08844321,0.0002361,53.2207,113.2823,52.8528,307.2679,6.5591e-05,7.56e-06,0.0,0 STARLINK-4292,1 53175U 22083AV  22340.34888417  .00000756  00000-0  65591-4 0  9998,2 53175  53.2207 113.2823 0002361  52.8528 307.2679 15.08844321 21669,6917.8669999999975,95.437,541.365,538.099,0.0
53175.0,STARLINK-4292,PAYLOAD,2022-12-06 14:43:56,15.08836525,0.0002355,53.2208,112.0927,57.5668,302.5552,5.3996e-05,5.71e-06,0.0,0 STARLINK-4292,1 53175U 22083AV  22340.61384879  .00000571  00000-0  53996-4 0  9992,2 53175  53.2208 112.0927 0002355  57.5668 302.5552 15.08836525 22343,6917.891,95.438,541.385,538.127,0.0
